NORAD_CAT_ID,OBJECT_NAME,OBJECT_TYPE,EPOCH,MEAN_MOTION,ECCENTRICITY,INCLINATION,RA_OF_ASC_NODE,ARG_OF_PERICENTER,MEAN_ANOMALY,BSTAR,MEAN_MOTION_DOT,MEAN_MOTION_DDOT,TLE_LINE0,TLE_LINE1,TLE_LINE2,SEMIMAJOR_AXIS,PERIOD,APOGEE,PERIGEE,DECAYED
53778.0,STARLINK-4709,PAYLOAD,2023-03-04 11:21:47,15.0883532,0.0001266,53.2175,182.3978,90.9512,269.1625,4.5941e-05,4.43e-06,0.0,0 STARLINK-4709,1 53778U 22111F   23063.47346451  .00000443  00000-0  45941-4 0  9993,2 53778  53.2175 182.3978 0001266  90.9512 269.1625 15.08835320 27380,6917.895,95.438,540.635,538.884,0.0
53778.0,STARLINK-4709,PAYLOAD,2023-03-04 17:43:19,15.08847102,0.0001385,53.2159,181.2064,95.5592,264.5559,8.2829e-05,1.031e-05,0.0,0 STARLINK-4709,1 53778U 22111F   23063.73841582  .00001031  00000-0  82829-4 0  9997,2 53778  53.2159 181.2064 0001385  95.5592 264.5559 15.08847102 26618,6917.859,95.437,540.682,538.766,0.0
53778.0,STARLINK-4709,PAYLOAD,2023-03-05 08:01:48,15.0883303,0.0001789,53.2139,178.5299,102.8277,257.2915,-0.00015195,-2.705e-05,0.0,0 STARLINK-4709,1 53778U 22111F   23064.33458461 -.00002705  00000-0 -15195-3 0  9996,2 53778  53.2139 178.5299 0001789 102.8277 257.2915 15.08833030 26705,6917.902,95.438,541.004,538.529,0.0
53778.0,STARLINK-4709,PAYLOAD,2023-03-06 11:03:20,15.08847751,0.0001613,53.2181,173.4797,115.7514,244.3645,0.00025965,3.848e-05,0.0,0 STARLINK-4709,1 53778U 22111F   23065.46065862  .00003848  00000-0  25965-3 0  9993,2 53778  53.2181 173.4797 0001613 115.7514 244.3645 15.08847751 26872,6917.857,95.437,540.838,538.606,0.0
53778.0,STARLINK-4709,PAYLOAD,2023-03-06 17:24:52,15.08863581,0.0001187,53.2169,172.2877,118.9409,241.1702,0.00043798,6.694e-05,0.0,0 STARLINK-4709,1 53778U 22111F   23065.72560645  .00006694  00000-0  43798-3 0  9997,2 53778  53.2169 172.2877 0001187 118.9409 241.1702 15.08863581 26911,6917.808,95.436,540.494,538.852,0.0
53778.0,STARLINK-4709,PAYLOAD,2023-03-07 06:07:59,15.08837685,0.0002824,53.2165,169.9117,89.4061,270.7255,0.00010596,1.398e-05,0.0,0 STARLINK-4709,1 53778U 22111F   23066.25554563  .00001398  00000-0  10596-3 0  9994,2 53778  53.2165 169.9117 0002824  89.4061 270.7255 15.08837685 26997,6917.887,95.438,541.706,537.799,0.0
53778.0,STARLINK-4709,PAYLOAD,2023-03-07 07:43:22,15.08823849,0.0001393,53.2176,169.6135,104.1246,255.9901,-0.00034102,-5.709e-05,0.0,0 STARLINK-4709,1 53778U 22111F   23066.32178591 -.00005709  00000-0 -34102-3 0  9996,2 53778  53.2176 169.6135 0001393 104.1246 255.9901 15.08823849 27009,6917.93,95.439,540.758,538.831,0.0
53778.0,STARLINK-4709,PAYLOAD,2023-03-07 17:15:40,15.08846384,0.0001293,53.2171,167.8272,105.8137,254.2998,0.00011456,1.536e-05,0.0,0 STARLINK-4709,1 53778U 22111F   23066.71921827  .00001536  00000-0  11456-3 0  9996,2 53778  53.2171 167.8272 0001293 105.8137 254.2998 15.08846384 27065,6917.861,95.437,540.62,538.831,0.0
53778.0,STARLINK-4709,PAYLOAD,2023-03-08 05:58:46,15.08824559,0.0001323,53.2168,165.4507,113.3089,246.8042,-0.00019848,-3.444e-05,0.0,0 STARLINK-4709,1 53778U 22111F   23067.24915211 -.00003444  00000-0 -19848-3 0  9990,2 53778  53.2168 165.4507 0001323 113.3089 246.8042 15.08824559 27146,6917.928,95.439,540.708,538.877,0.0
53778.0,STARLINK-4709,PAYLOAD,2023-03-08 15:31:04,15.0884874,0.0001339,53.2175,163.6647,114.7668,245.3464,0.00010564,1.394e-05,0.0,0 STARLINK-4709,1 53778U 22111F   23067.64658127  .00001394  00000-0  10564-3 0  9990,2 53778  53.2175 163.6647 0001339 114.7668 245.3464 15.08848740 27201,6917.854,95.437,540.645,538.792,0.0
53778.0,STARLINK-4709,PAYLOAD,2023-03-09 12:11:05,15.08851586,0.0001536,53.2168,159.7985,84.8692,275.2475,0.00031094,4.666e-05,0.0,0 STARLINK-4709,1 53778U 22111F   23068.50770462  .00004666  00000-0  31094-3 0  9999,2 53778  53.2168 159.7985 0001536  84.8692 275.2475 15.08851586 28147,6917.845,95.437,540.773,538.647,0.0
53778.0,STARLINK-4709,PAYLOAD,2023-03-10 05:40:20,15.08845849,0.0001272,53.2153,156.5292,105.26,254.8533,0.00021406,3.121e-05,0.0,0 STARLINK-4709,1 53778U 22111F   23069.23634292  .00003121  00000-0  21406-3 0  9991,2 53778  53.2153 156.5292 0001272 105.2600 254.8533 15.08845849 27446,6917.863,95.437,540.607,538.848,0.0
53778.0,STARLINK-4709,PAYLOAD,2023-03-10 12:01:53,15.08814819,0.0001302,53.2168,155.3387,105.3652,254.7484,-0.00056433,-9.252e-05,0.0,0 STARLINK-4709,1 53778U 22111F   23069.50131402 -.00009252  00000-0 -56433-3 0  9997,2 53778  53.2168 155.3387 0001302 105.3652 254.7484 15.08814819 27487,6917.957,95.439,540.723,538.922,0.0
53778.0,STARLINK-4709,PAYLOAD,2023-03-11 05:31:08,15.08822742,8.85e-05,53.217,152.0688,78.8246,281.2845,-0.00017071,-3.002e-05,0.0,0 STARLINK-4709,1 53778U 22111F   23070.22996214 -.00003002  00000-0 -17071-3 0  9990,2 53778  53.2170 152.0688 0000885  78.8246 281.2845 15.08822742 27598,6917.933,95.439,540.41,539.186,0.0
53778.0,STARLINK-4709,PAYLOAD,2023-03-11 10:17:17,15.08839721,0.0001338,53.2159,151.1762,95.5581,264.5564,8.8461e-05,1.12e-05,0.0,0 STARLINK-4709,1 53778U 22111F   23070.42867533  .00001120  00000-0  88461-4 0  9992,2 53778  53.2159 151.1762 0001338  95.5581 264.5564 15.08839721 28431,6917.881,95.438,540.672,538.821,0.0
53778.0,STARLINK-4709,PAYLOAD,2023-03-11 15:03:26,15.08847994,0.0001531,53.2159,150.2813,114.9478,245.1673,0.0003073,4.607e-05,0.0,0 STARLINK-4709,1 53778U 22111F   23070.62739091  .00004607  00000-0  30730-3 0  9999,2 53778  53.2159 150.2813 0001531 114.9478 245.1673 15.08847994 27654,6917.856,95.437,540.78,538.662,0.0
53778.0,STARLINK-4709,PAYLOAD,2023-03-12 13:18:51,15.0883475,0.000119,53.2165,146.1204,114.931,245.1806,0.00018079,2.59e-05,0.0,0 STARLINK-4709,1 53778U 22111F   23071.55475959  .00002590  00000-0  18079-3 0  9993,2 53778  53.2165 146.1204 0001190 114.9310 245.1806 15.08834750 27794,6917.896,95.438,540.585,538.938,0.0
53778.0,STARLINK-4709,PAYLOAD,2023-03-12 14:54:14,15.0883551,0.0001438,53.2162,145.8216,113.971,246.1433,0.00018548,2.665e-05,0.0,0 STARLINK-4709,1 53778U 22111F   23071.62099987  .00002665  00000-0  18548-3 0  9998,2 53778  53.2162 145.8216 0001438 113.9710 246.1433 15.08835510 28612,6917.894,95.438,540.754,538.764,0.0
53778.0,STARLINK-4709,PAYLOAD,2023-03-13 13:09:37,15.08852269,0.0001606,53.2145,141.659,110.8148,249.3017,0.00018601,2.675e-05,0.0,0 STARLINK-4709,1 53778U 22111F   23072.54835162  .00002675  00000-0  18601-3 0  9994,2 53778  53.2145 141.6590 0001606 110.8148 249.3017 15.08852269 28758,6917.843,95.437,540.819,538.597,0.0
53778.0,STARLINK-4709,PAYLOAD,2023-03-14 05:03:29,15.0884176,0.0001318,53.2162,138.686,107.7558,252.3578,-6.8895e-05,-1.384e-05,0.0,0 STARLINK-4709,1 53778U 22111F   23073.21075571 -.00001384  00000-0 -68895-4 0  9998,2 53778  53.2162 138.6860 0001318 107.7558 252.3578 15.08841760 28045,6917.875,95.437,540.652,538.828,0.0
53778.0,STARLINK-4709,PAYLOAD,2023-03-14 11:25:01,15.08842937,9.45e-05,53.2161,137.4981,88.6663,271.4437,-7.0234e-05,-1.405e-05,0.0,0 STARLINK-4709,1 53778U 22111F   23073.47571476 -.00001405  00000-0 -70234-4 0  9995,2 53778  53.2161 137.4981 0000945  88.6663 271.4437 15.08842937 28890,6917.871,95.437,540.39,539.083,0.0
53778.0,STARLINK-4709,PAYLOAD,2023-03-14 20:57:20,15.0885305,0.0001093,53.2168,135.714,75.3228,284.7885,7.9567e-05,9.79e-06,0.0,0 STARLINK-4709,1 53778U 22111F   23073.87314873  .00000979  00000-0  79567-4 0  9996,2 53778  53.2168 135.7140 0001093  75.3228 284.7885 15.08853050 28140,6917.841,95.437,540.462,538.949,0.0
53778.0,STARLINK-4709,PAYLOAD,2023-03-15 11:15:47,15.08866278,0.0001034,53.2157,133.036,92.1242,267.9868,0.00040734,6.206e-05,0.0,0 STARLINK-4709,1 53778U 22111F   23074.46929918  .00006206  00000-0  40734-3 0  9996,2 53778  53.2157 133.0360 0001034  92.1242 267.9868 15.08866278 28231,6917.8,95.436,540.38,538.95,0.0
53778.0,STARLINK-4709,PAYLOAD,2023-03-15 20:48:05,15.08869728,0.0001074,53.2161,131.2526,86.0188,274.0927,0.00049727,7.641e-05,0.0,0 STARLINK-4709,1 53778U 22111F   23074.86673344  .00007641  00000-0  49727-3 0  9994,2 53778  53.2161 131.2526 0001074  86.0188 274.0927 15.08869728 29100,6917.79,95.436,540.397,538.912,0.0
53778.0,STARLINK-4709,PAYLOAD,2023-03-16 03:09:39,15.08842745,0.0001121,53.2168,130.0639,87.0373,273.0748,-9.1069e-06,-4.33e-06,0.0,0 STARLINK-4709,1 53778U 22111F   23075.13170871 -.00000433  00000-0 -91069-5 0  9994,2 53778  53.2168 130.0639 0001121  87.0373 273.0748 15.08842745 28333,6917.872,95.437,540.512,538.962,0.0
53778.0,STARLINK-4709,PAYLOAD,2023-03-16 11:06:35,15.08841436,0.0001036,53.216,128.5745,97.4092,262.7018,-4.1472e-05,-9.48e-06,0.0,0 STARLINK-4709,1 53778U 22111F   23075.46290794 -.00000948  00000-0 -41472-4 0  9990,2 53778  53.2160 128.5745 0001036  97.4092 262.7018 15.08841436 29199,6917.876,95.437,540.458,539.024,0.0
53778.0,STARLINK-4709,PAYLOAD,2023-03-17 03:00:27,15.08824492,0.0001486,53.2172,125.6059,81.2481,278.8679,-0.00023198,-3.976e-05,0.0,0 STARLINK-4709,1 53778U 22111F   23076.12532175 -.00003976  00000-0 -23198-3 0  9994,2 53778  53.2172 125.6059 0001486  81.2481 278.8679 15.08824492 28485,6917.928,95.439,540.821,538.765,0.0
53778.0,STARLINK-4709,PAYLOAD,2023-03-17 12:32:47,15.08823931,0.0001339,53.2164,123.8167,93.2335,266.8811,-0.0001061,-1.975e-05,0.0,0 STARLINK-4709,1 53778U 22111F   23076.52276737 -.00001975  00000-0 -10610-3 0  9999,2 53778  53.2164 123.8167 0001339  93.2335 266.8811 15.08823931 29353,6917.93,95.439,540.721,538.868,0.0
53778.0,STARLINK-4709,PAYLOAD,2023-03-17 20:29:42,15.08832326,0.0001353,53.2167,122.3312,77.7243,282.39,0.00018857,2.714e-05,0.0,0 STARLINK-4709,1 53778U 22111F   23076.85396653  .00002714  00000-0  18857-3 0  9996,2 53778  53.2167 122.3312 0001353  77.7243 282.3900 15.08832326 29409,6917.904,95.438,540.705,538.833,0.0
53778.0,STARLINK-4709,PAYLOAD,2023-03-18 01:15:52,15.08836696,0.000121,53.2158,121.4397,76.6381,283.4746,0.00040494,6.162e-05,0.0,0 STARLINK-4709,1 53778U 22111F   23077.05268800  .00006162  00000-0  40494-3 0  9994,2 53778  53.2158 121.4397 0001210  76.6381 283.4746 15.08836696 28622,6917.89,95.438,540.593,538.918,0.0
